*******************************************************************************
Ephemeris / WWW_USER Mon Jul 15 19:00:58 2024 Pasadena, USA      / Horizons    
*******************************************************************************
Target body name: (2018 RP1)                      {source: JPL#4}
Center body name: Earth (399)                     {source: DE441}
Center-site name: Gemini South Obs., Cerro Pachon
*******************************************************************************
Start time      : A.D. 2018-Oct-27 23:10:00.0000 UT      
Stop  time      : A.D. 2018-Oct-28 09:43:00.0000 UT      
Step-size       : 1 minutes
*******************************************************************************
Target pole/equ : undefined
Target radii    : undefined                                                    
Center geodetic : 289.2634, -30.2406227, 2.71233  {E-lon(deg),Lat(deg),Alt(km)}
Center cylindric: 289.2634,5517.21435,-3194.81213 {E-lon(deg),Dxy(km),Dz(km)}
Center pole/equ : ITRF93                          {East-longitude positive}
Center radii    : 6378.137, 6378.137, 6356.752 km {Equator_a, b, pole_c}       
Target primary  : Sun
Vis. interferer : MOON (R_eq= 1737.400) km        {source: DE441}
Rel. light bend : Sun                             {source: DE441}
Rel. lght bnd GM: 1.3271E+11 km^3/s^2                                          
Small-body perts: Yes                             {source: SB441-N16}
Atmos refraction: NO (AIRLESS)
RA format       : HMS
Time format     : CAL 
Calendar mode   : Mixed Julian/Gregorian
RTS-only print  : NO       
EOP file        : eop.240715.p241008                                           
EOP coverage    : DATA-BASED 1962-JAN-20 TO 2024-JUL-15. PREDICTS-> 2024-OCT-07
Units conversion: 1 au= 149597870.700 km, c= 299792.458 km/s, 1 day= 86400.0 s 
Table cut-offs 1: Elevation (-90.0deg=NO ),Airmass (>38.000=NO), Daylight (YES)
Table cut-offs 2: Solar elongation (  0.0,180.0=NO ),Local Hour Angle( 0.0=NO )
Table cut-offs 3: RA/DEC angular rate (     0.0=NO )                           
*******************************************************************************
Initial IAU76/J2000 heliocentric ecliptic osculating elements (au, days, deg.):
  EPOCH=  2458376.5 ! 2018-Sep-15.00 (TDB)         Residual RMS= .12525        
   EC= .3382936082205208   QR= .9576766169446216   TP= 2458412.3293739939      
   OM= 161.903422202901    W=  234.5704247756858   IN= 9.466091569921099       
  Equivalent ICRF heliocentric cartesian coordinates (au, au/d):
   X= 1.017940821946709E+00  Y=-7.278189102440286E-02  Z=-7.249995171787897E-02
  VX=-1.754817228708964E-03 VY= 1.862872143473751E-02 VZ= 4.887370356508847E-03
Asteroid physical parameters (km, seconds, rotational period in hours):        
   GM= n.a.                RAD= n.a.               ROTPER= n.a.                
   H= 24.3                 G= .150                 B-V= n.a.                   
                           ALBEDO= n.a.            STYP= n.a.                  
*******************************************************************************
 Date__(UT)__HR:MN     R.A._________(ICRF)_________DEC
******************************************************
$$SOE
 2018-Oct-28 09:25 Nm  08 53 30.713986 -21 31 04.19244
 2018-Oct-28 09:26 Nm  08 53 30.795522 -21 31 04.13890
 2018-Oct-28 09:27 Cm  08 53 30.877037 -21 31 04.08516
 2018-Oct-28 09:28 Cm  08 53 30.958532 -21 31 04.03122
 2018-Oct-28 09:29 Cm  08 53 31.040006 -21 31 03.97706
 2018-Oct-28 09:30 Cm  08 53 31.121461 -21 31 03.92271
 2018-Oct-28 09:31 Cm  08 53 31.202896 -21 31 03.86815
 2018-Oct-28 09:32 Cm  08 53 31.284311 -21 31 03.81338
 2018-Oct-28 09:33 Cm  08 53 31.365707 -21 31 03.75840
 2018-Oct-28 09:34 Cm  08 53 31.447084 -21 31 03.70322
 2018-Oct-28 09:35 Cm  08 53 31.528441 -21 31 03.64783
 2018-Oct-28 09:36 Cm  08 53 31.609780 -21 31 03.59223
 2018-Oct-28 09:37 Cm  08 53 31.691100 -21 31 03.53643
 2018-Oct-28 09:38 Cm  08 53 31.772402 -21 31 03.48041
 2018-Oct-28 09:39 Cm  08 53 31.853685 -21 31 03.42419
 2018-Oct-28 09:40 Cm  08 53 31.934949 -21 31 03.36775
 2018-Oct-28 09:41 Cm  08 53 32.016196 -21 31 03.31111
 2018-Oct-28 09:42 Cm  08 53 32.097425 -21 31 03.25425
 2018-Oct-28 09:43 Cm  08 53 32.178637 -21 31 03.19719
